{"type":"FeatureCollection","features":[
{"type":"Feature","geometry":{"type":"Polygon","coordinates":[[[117.7408923600,24.4456588800],[117.7417256900,24.4456588800],[117.7425590200,24.4456588800],[117.7433923500,24.4456588800],[117.7433923500,24.4448255500],[117.7442256800,24.4448255500],[117.7442256800,24.4456588800],[117.7450590100,24.4456588800],[117.7458923400,24.4456588800],[117.7458923400,24.4448255500],[117.7467256700,24.4448255500],[117.7475590000,24.4448255500],[117.7483923300,24.4448255500],[117.7492256600,24.4448255500],[117.7492256600,24.4439922200],[117.7492256600,24.4431588900],[117.7500589900,24.4431588900],[117.7500589900,24.4423255600],[117.7508923200,24.4423255600],[117.7508923200,24.4414922300],[117.7517256500,24.4414922300],[117.7517256500,24.4406589000],[117.7525589800,24.4406589000],[117.7525589800,24.4398255700],[117.7533923100,24.4398255700],[117.7542256400,24.4398255700],[117.7542256400,24.4406589000],[117.7550589700,24.4406589000],[117.7558923000,24.4406589000],[117.7567256300,24.4406589000],[117.7567256300,24.4398255700],[117.7575589600,24.4398255700],[117.7575589600,24.4389922400],[117.7583922900,24.4389922400],[117.7583922900,24.4381589100],[117.7592256200,24.4381589100],[117.7600589500,24.4381589100],[117.7608922800,24.4381589100],[117.7608922800,24.4373255800],[117.7617256100,24.4373255800],[117.7625589400,24.4373255800],[117.7625589400,24.4364922500],[117.7633922700,24.4364922500],[117.7642256000,24.4364922500],[117.7642256000,24.4356589200],[117.7642256000,24.4348255900],[117.7650589300,24.4348255900],[117.7650589300,24.4339922600],[117.7650589300,24.4331589300],[117.7650589300,24.4323256000],[117.7650589300,24.4314922700],[117.7650589300,24.4306589400],[117.7650589300,24.4298256100],[117.7650589300,24.4289922800],[117.7658922600,24.4289922800],[117.7667255900,24.4289922800],[117.7667255900,24.4281589500],[117.7675589200,24.4281589500],[117.7675589200,24.4273256200],[117.7675589200,24.4264922900],[117.7675589200,24.4256589600],[117.7667255900,24.4256589600],[117.7667255900,24.4248256300],[117.7667255900,24.4239923000],[117.7667255900,24.4231589700],[117.7675589200,24.4231589700],[117.7675589200,24.4223256400],[117.7683922500,24.4223256400],[117.7683922500,24.4231589700],[117.7692255800,24.4231589700],[117.7692255800,24.4223256400],[117.7700589100,24.4223256400],[117.7700589100,24.4214923100],[117.7708922400,24.4214923100],[117.7708922400,24.4206589800],[117.7717255700,24.4206589800],[117.7717255700,24.4198256500],[117.7725589000,24.4198256500],[117.7725589000,24.4189923200],[117.7733922300,24.4189923200],[117.7733922300,24.4181589900],[117.7733922300,24.4173256600],[117.7742255600,24.4173256600],[117.7742255600,24.4164923300],[117.7750588900,24.4164923300],[117.7758922200,24.4164923300],[117.7767255500,24.4164923300],[117.7775588800,24.4164923300],[117.7783922100,24.4164923300],[117.7783922100,24.4173256600],[117.7792255400,24.4173256600],[117.7800588700,24.4173256600],[117.7808922000,24.4173256600],[117.7817255300,24.4173256600],[117.7825588600,24.4173256600],[117.7833921900,24.4173256600],[117.7842255200,24.4173256600],[117.7850588500,24.4173256600],[117.7850588500,24.4164923300],[117.7858921800,24.4164923300],[117.7867255100,24.4164923300],[117.7875588400,24.4164923300],[117.7875588400,24.4173256600],[117.7883921700,24.4173256600],[117.7883921700,24.4181589900],[117.7892255000,24.4181589900],[117.7892255000,24.4189923200],[117.7900588300,24.4189923200],[117.7900588300,24.4198256500],[117.7908921600,24.4198256500],[117.7908921600,24.4206589800],[117.7917254900,24.4206589800],[117.7925588200,24.4206589800],[117.7933921500,24.4206589800],[117.7933921500,24.4214923100],[117.7942254800,24.4214923100],[117.7942254800,24.4223256400],[117.7950588100,24.4223256400],[117.7958921400,24.4223256400],[117.7967254700,24.4223256400],[117.7967254700,24.4231589700],[117.7975588000,24.4231589700],[117.7975588000,24.4239923000],[117.7983921300,24.4239923000],[117.7983921300,24.4248256300],[117.7983921300,24.4256589600],[117.7992254600,24.4256589600],[117.7992254600,24.4248256300],[117.8000587900,24.4248256300],[117.8000587900,24.4256589600],[117.8008921200,24.4256589600],[117.8017254500,24.4256589600],[117.8025587800,24.4256589600],[117.8033921100,24.4256589600],[117.8042254400,24.4256589600],[117.8042254400,24.4264922900],[117.8050587700,24.4264922900],[117.8058921000,24.4264922900],[117.8067254300,24.4264922900],[117.8067254300,24.4273256200],[117.8075587600,24.4273256200],[117.8083920900,24.4273256200],[117.8092254200,24.4273256200],[117.8092254200,24.4264922900],[117.8100587500,24.4264922900],[117.8108920800,24.4264922900],[117.8117254100,24.4264922900],[117.8125587400,24.4264922900],[117.8133920700,24.4264922900],[117.8142254000,24.4264922900],[117.8150587300,24.4264922900],[117.8158920600,24.4264922900],[117.8167253900,24.4264922900],[117.8175587200,24.4264922900],[117.8175587200,24.4256589600],[117.8183920500,24.4256589600],[117.8192253800,24.4256589600],[117.8200587100,24.4256589600],[117.8208920400,24.4256589600],[117.8208920400,24.4248256300],[117.8217253700,24.4248256300],[117.8225587000,24.4248256300],[117.8233920300,24.4248256300],[117.8242253600,24.4248256300],[117.8242253600,24.4239923000],[117.8250586900,24.4239923000],[117.8250586900,24.4231589700],[117.8242253600,24.4231589700],[117.8242253600,24.4223256400],[117.8233920300,24.4223256400],[117.8233920300,24.4214923100],[117.8233920300,24.4206589800],[117.8225587000,24.4206589800],[117.8225587000,24.4198256500],[117.8217253700,24.4198256500],[117.8217253700,24.4189923200],[117.8225587000,24.4189923200],[117.8225587000,24.4181589900],[117.8225587000,24.4173256600],[117.8225587000,24.4164923300],[117.8225587000,24.4156590000],[117.8225587000,24.4148256700],[117.8225587000,24.4139923400],[117.8233920300,24.4139923400],[117.8233920300,24.4131590100],[117.8242253600,24.4131590100],[117.8242253600,24.4123256800],[117.8233920300,24.4123256800],[117.8233920300,24.4114923500],[117.8242253600,24.4114923500],[117.8242253600,24.4106590200],[117.8242253600,24.4098256900],[117.8250586900,24.4098256900],[117.8250586900,24.4089923600],[117.8250586900,24.4081590300],[117.8250586900,24.4073257000],[117.8250586900,24.4064923700],[117.8250586900,24.4056590400],[117.8258920200,24.4056590400],[117.8267253500,24.4056590400],[117.8275586800,24.4056590400],[117.8283920100,24.4056590400],[117.8292253400,24.4056590400],[117.8292253400,24.4048257100],[117.8300586700,24.4048257100],[117.8300586700,24.4039923800],[117.8308920000,24.4039923800],[117.8308920000,24.4031590500],[117.8317253300,24.4031590500],[117.8325586600,24.4031590500],[117.8333919900,24.4031590500],[117.8333919900,24.4023257200],[117.8342253200,24.4023257200],[117.8342253200,24.4014923900],[117.8350586500,24.4014923900],[117.8350586500,24.4006590600],[117.8358919800,24.4006590600],[117.8358919800,24.3998257300],[117.8367253100,24.3998257300],[117.8367253100,24.3989924000],[117.8367253100,24.3981590700],[117.8375586400,24.3981590700],[117.8375586400,24.3973257400],[117.8375586400,24.3964924100],[117.8375586400,24.3956590800],[117.8383919700,24.3956590800],[117.8383919700,24.3948257500],[117.8392253000,24.3948257500],[117.8392253000,24.3956590800],[117.8400586300,24.3956590800],[117.8408919600,24.3956590800],[117.8408919600,24.3964924100],[117.8417252900,24.3964924100],[117.8425586200,24.3964924100],[117.8433919500,24.3964924100],[117.8433919500,24.3956590800],[117.8433919500,24.3948257500],[117.8442252800,24.3948257500],[117.8450586100,24.3948257500],[117.8458919400,24.3948257500],[117.8458919400,24.3939924200],[117.8458919400,24.3931590900],[117.8467252700,24.3931590900],[117.8475586000,24.3931590900],[117.8475586000,24.3923257600],[117.8483919300,24.3923257600],[117.8483919300,24.3931590900],[117.8492252600,24.3931590900],[117.8500585900,24.3931590900],[117.8508919200,24.3931590900],[117.8517252500,24.3931590900],[117.8525585800,24.3931590900],[117.8533919100,24.3931590900],[117.8533919100,24.3939924200],[117.8542252400,24.3939924200],[117.8542252400,24.3931590900],[117.8550585700,24.3931590900],[117.8550585700,24.3939924200],[117.8558919000,24.3939924200],[117.8567252300,24.3939924200],[117.8575585600,24.3939924200],[117.8575585600,24.3931590900],[117.8583918900,24.3931590900],[117.8583918900,24.3923257600],[117.8592252200,24.3923257600],[117.8592252200,24.3914924300],[117.8592252200,24.3906591000],[117.8600585500,24.3906591000],[117.8600585500,24.3898257700],[117.8608918800,24.3898257700],[117.8608918800,24.3889924400],[117.8617252100,24.3889924400],[117.8625585400,24.3889924400],[117.8633918700,24.3889924400],[117.8642252000,24.3889924400],[117.8650585300,24.3889924400],[117.8650585300,24.3881591100],[117.8650585300,24.3873257800],[117.8658918600,24.3873257800],[117.8667251900,24.3873257800],[117.8667251900,24.3881591100],[117.8667251900,24.3889924400],[117.8667251900,24.3898257700],[117.8675585200,24.3898257700],[117.8683918500,24.3898257700],[117.8683918500,24.3906591000],[117.8692251800,24.3906591000],[117.8692251800,24.3914924300],[117.8700585100,24.3914924300],[117.8700585100,24.3923257600],[117.8708918400,24.3923257600],[117.8717251700,24.3923257600],[117.8717251700,24.3931590900],[117.8725585000,24.3931590900],[117.8725585000,24.3923257600],[117.8725585000,24.3914924300],[117.8733918300,24.3914924300],[117.8733918300,24.3906591000],[117.8742251600,24.3906591000],[117.8742251600,24.3898257700],[117.8750584900,24.3898257700],[117.8758918200,24.3898257700],[117.8758918200,24.3889924400],[117.8767251500,24.3889924400],[117.8767251500,24.3881591100],[117.8775584800,24.3881591100],[117.8775584800,24.3873257800],[117.8783918100,24.3873257800],[117.8792251400,24.3873257800],[117.8800584700,24.3873257800],[117.8800584700,24.3864924500],[117.8808918000,24.3864924500],[117.8808918000,24.3856591200],[117.8817251300,24.3856591200],[117.8825584600,24.3856591200],[117.8833917900,24.3856591200],[117.8833917900,24.3864924500],[117.8842251200,24.3864924500],[117.8842251200,24.3873257800],[117.8842251200,24.3881591100],[117.8842251200,24.3889924400],[117.8842251200,24.3898257700],[117.8850584500,24.3898257700],[117.8858917800,24.3898257700],[117.8867251100,24.3898257700],[117.8867251100,24.3906591000],[117.8875584400,24.3906591000],[117.8883917700,24.3906591000],[117.8883917700,24.3914924300],[117.8883917700,24.3923257600],[117.8892251000,24.3923257600],[117.8900584300,24.3923257600],[117.8900584300,24.3931590900],[117.8900584300,24.3939924200],[117.8900584300,24.3948257500],[117.8900584300,24.3956590800],[117.8908917600,24.3956590800],[117.8917250900,24.3956590800],[117.8925584200,24.3956590800],[117.8925584200,24.3948257500],[117.8933917500,24.3948257500],[117.8942250800,24.3948257500],[117.8942250800,24.3956590800],[117.8950584100,24.3956590800],[117.8950584100,24.3964924100],[117.8958917400,24.3964924100],[117.8958917400,24.3956590800],[117.8967250700,24.3956590800],[117.8967250700,24.3964924100],[117.8975584000,24.3964924100],[117.8975584000,24.3973257400],[117.8983917300,24.3973257400],[117.8992250600,24.3973257400],[117.8992250600,24.3981590700],[117.9000583900,24.3981590700],[117.9000583900,24.3989924000],[117.9008917200,24.3989924000],[117.9017250500,24.3989924000],[117.9017250500,24.3981590700],[117.9025583800,24.3981590700],[117.9025583800,24.3973257400],[117.9033917100,24.3973257400],[117.9033917100,24.3964924100],[117.9042250400,24.3964924100],[117.9042250400,24.3973257400],[117.9050583700,24.3973257400],[117.9050583700,24.3964924100],[117.9050583700,24.3956590800],[117.9050583700,24.3948257500],[117.9050583700,24.3939924200],[117.9058917000,24.3939924200],[117.9058917000,24.3931590900],[117.9067250300,24.3931590900],[117.9067250300,24.3923257600],[117.9067250300,24.3914924300],[117.9075583600,24.3914924300],[117.9075583600,24.3906591000],[117.9075583600,24.3898257700],[117.9067250300,24.3898257700],[117.9058917000,24.3898257700],[117.9058917000,24.3889924400],[117.9050583700,24.3889924400],[117.9050583700,24.3881591100],[117.9050583700,24.3873257800],[117.9058917000,24.3873257800],[117.9058917000,24.3864924500],[117.9067250300,24.3864924500],[117.9067250300,24.3856591200],[117.9075583600,24.3856591200],[117.9083916900,24.3856591200],[117.9083916900,24.3864924500],[117.9092250200,24.3864924500],[117.9092250200,24.3856591200],[117.9092250200,24.3848257900],[117.9092250200,24.3839924600],[117.9083916900,24.3839924600],[117.9083916900,24.3831591300],[117.9083916900,24.3823258000],[117.9075583600,24.3823258000],[117.9075583600,24.3814924700],[117.9083916900,24.3814924700],[117.9083916900,24.3806591400],[117.9083916900,24.3798258100],[117.9092250200,24.3798258100],[117.9092250200,24.3789924800],[117.9100583500,24.3789924800],[117.9100583500,24.3781591500],[117.9100583500,24.3773258200],[117.9100583500,24.3764924900],[117.9108916800,24.3764924900],[117.9108916800,24.3756591600],[117.9108916800,24.3748258300],[117.9108916800,24.3739925000],[117.9108916800,24.3731591700],[117.9108916800,24.3723258400],[117.9108916800,24.3714925100],[117.9108916800,24.3706591800],[117.9100583500,24.3706591800],[117.9100583500,24.3698258500],[117.9092250200,24.3698258500],[117.9092250200,24.3689925200],[117.9092250200,24.3681591900],[117.9092250200,24.3673258600],[117.9100583500,24.3673258600],[117.9108916800,24.3673258600],[117.9117250100,24.3673258600],[117.9117250100,24.3664925300],[117.9117250100,24.3656592000],[117.9108916800,24.3656592000],[117.9108916800,24.3648258700],[117.9117250100,24.3648258700],[117.9117250100,24.3639925400],[117.9117250100,24.3631592100],[117.9117250100,24.3623258800],[117.9125583400,24.3623258800],[117.9125583400,24.3614925500],[117.9133916700,24.3614925500],[117.9133916700,24.3606592200],[117.9133916700,24.3598258900],[117.9133916700,24.3589925600],[117.9133916700,24.3581592300],[117.9133916700,24.3573259000],[117.9133916700,24.3564925700],[117.9125583400,24.3564925700],[117.9117250100,24.3564925700],[117.9117250100,24.3556592400],[117.9108916800,24.3556592400],[117.9108916800,24.3548259100],[117.9100583500,24.3548259100],[117.9100583500,24.3539925800],[117.9092250200,24.3539925800],[117.9092250200,24.3531592500],[117.9083916900,24.3531592500],[117.9083916900,24.3523259200],[117.9083916900,24.3514925900],[117.9083916900,24.3506592600],[117.9092250200,24.3506592600],[117.9092250200,24.3498259300],[117.9092250200,24.3489926000],[117.9083916900,24.3489926000],[117.9083916900,24.3481592700],[117.9083916900,24.3473259400],[117.9083916900,24.3464926100],[117.9083916900,24.3456592800],[117.9092250200,24.3456592800],[117.9092250200,24.3448259500],[117.9100583500,24.3448259500],[117.9100583500,24.3439926200],[117.9092250200,24.3439926200],[117.9092250200,24.3431592900],[117.9092250200,24.3423259600],[117.9092250200,24.3414926300],[117.9092250200,24.3406593000],[117.9092250200,24.3398259700],[117.9100583500,24.3398259700],[117.9100583500,24.3389926400],[117.9092250200,24.3389926400],[117.9092250200,24.3381593100],[117.9083916900,24.3381593100],[117.9083916900,24.3373259800],[117.9083916900,24.3364926500],[117.9083916900,24.3356593200],[117.9083916900,24.3348259900],[117.9083916900,24.3339926600],[117.9083916900,24.3331593300],[117.9083916900,24.3323260000],[117.9075583600,24.3323260000],[117.9067250300,24.3323260000],[117.9067250300,24.3314926700],[117.9058917000,24.3314926700],[117.9058917000,24.3306593400],[117.9050583700,24.3306593400],[117.9050583700,24.3298260100],[117.9050583700,24.3289926800],[117.9042250400,24.3289926800],[117.9042250400,24.3281593500],[117.9042250400,24.3273260200],[117.9050583700,24.3273260200],[117.9050583700,24.3264926900],[117.9050583700,24.3256593600],[117.9050583700,24.3248260300],[117.9042250400,24.3248260300],[117.9042250400,24.3239927000],[117.9042250400,24.3231593700],[117.9042250400,24.3223260400],[117.9050583700,24.3223260400],[117.9050583700,24.3214927100],[117.9042250400,24.3214927100],[117.9042250400,24.3206593800],[117.9033917100,24.3206593800],[117.9033917100,24.3198260500],[117.9033917100,24.3189927200],[117.9033917100,24.3181593900],[117.9025583800,24.3181593900],[117.9025583800,24.3173260600],[117.9017250500,24.3173260600],[117.9017250500,24.3164927300],[117.9008917200,24.3164927300],[117.9000583900,24.3164927300],[117.8992250600,24.3164927300],[117.8992250600,24.3173260600],[117.8983917300,24.3173260600],[117.8975584000,24.3173260600],[117.8975584000,24.3164927300],[117.8967250700,24.3164927300],[117.8967250700,24.3156594000],[117.8958917400,24.3156594000],[117.8950584100,24.3156594000],[117.8942250800,24.3156594000],[117.8933917500,24.3156594000],[117.8933917500,24.3148260700],[117.8925584200,24.3148260700],[117.8925584200,24.3139927400],[117.8917250900,24.3139927400],[117.8917250900,24.3131594100],[117.8917250900,24.3123260800],[117.8917250900,24.3114927500],[117.8908917600,24.3114927500],[117.8908917600,24.3106594200],[117.8908917600,24.3098260900],[117.8900584300,24.3098260900],[117.8892251000,24.3098260900],[117.8883917700,24.3098260900],[117.8883917700,24.3089927600],[117.8875584400,24.3089927600],[117.8875584400,24.3081594300],[117.8875584400,24.3073261000],[117.8867251100,24.3073261000],[117.8867251100,24.3064927700],[117.8875584400,24.3064927700],[117.8875584400,24.3056594400],[117.8867251100,24.3056594400],[117.8867251100,24.3048261100],[117.8858917800,24.3048261100],[117.8858917800,24.3039927800],[117.8850584500,24.3039927800],[117.8850584500,24.3031594500],[117.8842251200,24.3031594500],[117.8833917900,24.3031594500],[117.8825584600,24.3031594500],[117.8817251300,24.3031594500],[117.8817251300,24.3023261200],[117.8808918000,24.3023261200],[117.8808918000,24.3014927900],[117.8800584700,24.3014927900],[117.8800584700,24.3006594600],[117.8792251400,24.3006594600],[117.8792251400,24.2998261300],[117.8783918100,24.2998261300],[117.8775584800,24.2998261300],[117.8767251500,24.2998261300],[117.8767251500,24.3006594600],[117.8767251500,24.3014927900],[117.8758918200,24.3014927900],[117.8758918200,24.3023261200],[117.8750584900,24.3023261200],[117.8750584900,24.3031594500],[117.8742251600,24.3031594500],[117.8742251600,24.3023261200],[117.8733918300,24.3023261200],[117.8733918300,24.3014927900],[117.8725585000,24.3014927900],[117.8725585000,24.3006594600],[117.8725585000,24.2998261300],[117.8717251700,24.2998261300],[117.8717251700,24.2989928000],[117.8717251700,24.2981594700],[117.8717251700,24.2973261400],[117.8708918400,24.2973261400],[117.8708918400,24.2964928100],[117.8700585100,24.2964928100],[117.8700585100,24.2956594800],[117.8700585100,24.2948261500],[117.8692251800,24.2948261500],[117.8692251800,24.2939928200],[117.8683918500,24.2939928200],[117.8675585200,24.2939928200],[117.8667251900,24.2939928200],[117.8658918600,24.2939928200],[117.8658918600,24.2948261500],[117.8650585300,24.2948261500],[117.8650585300,24.2939928200],[117.8642252000,24.2939928200],[117.8642252000,24.2948261500],[117.8633918700,24.2948261500],[117.8625585400,24.2948261500],[117.8617252100,24.2948261500],[117.8608918800,24.2948261500],[117.8600585500,24.2948261500],[117.8592252200,24.2948261500],[117.8583918900,24.2948261500],[117.8575585600,24.2948261500],[117.8567252300,24.2948261500],[117.8567252300,24.2956594800],[117.8558919000,24.2956594800],[117.8550585700,24.2956594800],[117.8550585700,24.2964928100],[117.8550585700,24.2973261400],[117.8542252400,24.2973261400],[117.8542252400,24.2981594700],[117.8533919100,24.2981594700],[117.8533919100,24.2989928000],[117.8533919100,24.2998261300],[117.8525585800,24.2998261300],[117.8525585800,24.3006594600],[117.8517252500,24.3006594600],[117.8517252500,24.3014927900],[117.8508919200,24.3014927900],[117.8508919200,24.3023261200],[117.8500585900,24.3023261200],[117.8492252600,24.3023261200],[117.8492252600,24.3031594500],[117.8483919300,24.3031594500],[117.8483919300,24.3039927800],[117.8475586000,24.3039927800],[117.8475586000,24.3048261100],[117.8467252700,24.3048261100],[117.8467252700,24.3056594400],[117.8458919400,24.3056594400],[117.8458919400,24.3064927700],[117.8450586100,24.3064927700],[117.8450586100,24.3073261000],[117.8450586100,24.3081594300],[117.8450586100,24.3089927600],[117.8450586100,24.3098260900],[117.8450586100,24.3106594200],[117.8450586100,24.3114927500],[117.8450586100,24.3123260800],[117.8458919400,24.3123260800],[117.8458919400,24.3131594100],[117.8450586100,24.3131594100],[117.8450586100,24.3139927400],[117.8450586100,24.3148260700],[117.8450586100,24.3156594000],[117.8442252800,24.3156594000],[117.8442252800,24.3164927300],[117.8433919500,24.3164927300],[117.8425586200,24.3164927300],[117.8417252900,24.3164927300],[117.8417252900,24.3173260600],[117.8408919600,24.3173260600],[117.8408919600,24.3181593900],[117.8400586300,24.3181593900],[117.8400586300,24.3189927200],[117.8392253000,24.3189927200],[117.8392253000,24.3198260500],[117.8383919700,24.3198260500],[117.8375586400,24.3198260500],[117.8375586400,24.3206593800],[117.8367253100,24.3206593800],[117.8367253100,24.3214927100],[117.8358919800,24.3214927100],[117.8350586500,24.3214927100],[117.8342253200,24.3214927100],[117.8333919900,24.3214927100],[117.8333919900,24.3223260400],[117.8333919900,24.3231593700],[117.8325586600,24.3231593700],[117.8325586600,24.3239927000],[117.8317253300,24.3239927000],[117.8317253300,24.3248260300],[117.8308920000,24.3248260300],[117.8308920000,24.3239927000],[117.8300586700,24.3239927000],[117.8292253400,24.3239927000],[117.8292253400,24.3248260300],[117.8283920100,24.3248260300],[117.8275586800,24.3248260300],[117.8267253500,24.3248260300],[117.8258920200,24.3248260300],[117.8258920200,24.3256593600],[117.8250586900,24.3256593600],[117.8250586900,24.3264926900],[117.8242253600,24.3264926900],[117.8242253600,24.3273260200],[117.8233920300,24.3273260200],[117.8225587000,24.3273260200],[117.8225587000,24.3281593500],[117.8217253700,24.3281593500],[117.8217253700,24.3273260200],[117.8208920400,24.3273260200],[117.8200587100,24.3273260200],[117.8192253800,24.3273260200],[117.8192253800,24.3281593500],[117.8183920500,24.3281593500],[117.8183920500,24.3273260200],[117.8183920500,24.3264926900],[117.8175587200,24.3264926900],[117.8167253900,24.3264926900],[117.8167253900,24.3256593600],[117.8158920600,24.3256593600],[117.8150587300,24.3256593600],[117.8142254000,24.3256593600],[117.8133920700,24.3256593600],[117.8133920700,24.3248260300],[117.8125587400,24.3248260300],[117.8117254100,24.3248260300],[117.8117254100,24.3239927000],[117.8108920800,24.3239927000],[117.8100587500,24.3239927000],[117.8092254200,24.3239927000],[117.8083920900,24.3239927000],[117.8083920900,24.3248260300],[117.8075587600,24.3248260300],[117.8075587600,24.3256593600],[117.8067254300,24.3256593600],[117.8067254300,24.3264926900],[117.8058921000,24.3264926900],[117.8050587700,24.3264926900],[117.8042254400,24.3264926900],[117.8042254400,24.3273260200],[117.8033921100,24.3273260200],[117.8025587800,24.3273260200],[117.8025587800,24.3281593500],[117.8017254500,24.3281593500],[117.8008921200,24.3281593500],[117.8000587900,24.3281593500],[117.8000587900,24.3273260200],[117.7992254600,24.3273260200],[117.7992254600,24.3264926900],[117.7983921300,24.3264926900],[117.7983921300,24.3256593600],[117.7992254600,24.3256593600],[117.7992254600,24.3248260300],[117.8000587900,24.3248260300],[117.8008921200,24.3248260300],[117.8008921200,24.3239927000],[117.8017254500,24.3239927000],[117.8017254500,24.3231593700],[117.8025587800,24.3231593700],[117.8025587800,24.3223260400],[117.8033921100,24.3223260400],[117.8033921100,24.3214927100],[117.8033921100,24.3206593800],[117.8042254400,24.3206593800],[117.8042254400,24.3198260500],[117.8042254400,24.3189927200],[117.8042254400,24.3181593900],[117.8042254400,24.3173260600],[117.8042254400,24.3164927300],[117.8033921100,24.3164927300],[117.8033921100,24.3156594000],[117.8025587800,24.3156594000],[117.8025587800,24.3148260700],[117.8017254500,24.3148260700],[117.8017254500,24.3139927400],[117.8017254500,24.3131594100],[117.8008921200,24.3131594100],[117.8008921200,24.3123260800],[117.8008921200,24.3114927500],[117.8008921200,24.3106594200],[117.8000587900,24.3106594200],[117.8000587900,24.3098260900],[117.8000587900,24.3089927600],[117.7992254600,24.3089927600],[117.7992254600,24.3081594300],[117.7992254600,24.3073261000],[117.7992254600,24.3064927700],[117.7983921300,24.3064927700],[117.7983921300,24.3056594400],[117.7975588000,24.3056594400],[117.7975588000,24.3048261100],[117.7967254700,24.3048261100],[117.7958921400,24.3048261100],[117.7958921400,24.3039927800],[117.7958921400,24.3031594500],[117.7950588100,24.3031594500],[117.7950588100,24.3023261200],[117.7950588100,24.3014927900],[117.7942254800,24.3014927900],[117.7942254800,24.3006594600],[117.7942254800,24.2998261300],[117.7942254800,24.2989928000],[117.7942254800,24.2981594700],[117.7933921500,24.2981594700],[117.7933921500,24.2973261400],[117.7942254800,24.2973261400],[117.7942254800,24.2964928100],[117.7942254800,24.2956594800],[117.7942254800,24.2948261500],[117.7942254800,24.2939928200],[117.7950588100,24.2939928200],[117.7950588100,24.2931594900],[117.7950588100,24.2923261600],[117.7950588100,24.2914928300],[117.7942254800,24.2914928300],[117.7942254800,24.2906595000],[117.7942254800,24.2898261700],[117.7933921500,24.2898261700],[117.7933921500,24.2889928400],[117.7925588200,24.2889928400],[117.7925588200,24.2881595100],[117.7917254900,24.2881595100],[117.7917254900,24.2873261800],[117.7908921600,24.2873261800],[117.7900588300,24.2873261800],[117.7900588300,24.2864928500],[117.7892255000,24.2864928500],[117.7883921700,24.2864928500],[117.7875588400,24.2864928500],[117.7875588400,24.2856595200],[117.7867255100,24.2856595200],[117.7858921800,24.2856595200],[117.7858921800,24.2848261900],[117.7850588500,24.2848261900],[117.7850588500,24.2839928600],[117.7842255200,24.2839928600],[117.7833921900,24.2839928600],[117.7825588600,24.2839928600],[117.7817255300,24.2839928600],[117.7808922000,24.2839928600],[117.7800588700,24.2839928600],[117.7792255400,24.2839928600],[117.7783922100,24.2839928600],[117.7783922100,24.2848261900],[117.7775588800,24.2848261900],[117.7767255500,24.2848261900],[117.7758922200,24.2848261900],[117.7750588900,24.2848261900],[117.7742255600,24.2848261900],[117.7733922300,24.2848261900],[117.7725589000,24.2848261900],[117.7717255700,24.2848261900],[117.7717255700,24.2839928600],[117.7708922400,24.2839928600],[117.7708922400,24.2831595300],[117.7700589100,24.2831595300],[117.7692255800,24.2831595300],[117.7683922500,24.2831595300],[117.7683922500,24.2823262000],[117.7675589200,24.2823262000],[117.7667255900,24.2823262000],[117.7658922600,24.2823262000],[117.7658922600,24.2814928700],[117.7650589300,24.2814928700],[117.7642256000,24.2814928700],[117.7633922700,24.2814928700],[117.7633922700,24.2823262000],[117.7625589400,24.2823262000],[117.7625589400,24.2814928700],[117.7617256100,24.2814928700],[117.7608922800,24.2814928700],[117.7600589500,24.2814928700],[117.7600589500,24.2806595400],[117.7592256200,24.2806595400],[117.7583922900,24.2806595400],[117.7583922900,24.2798262100],[117.7583922900,24.2789928800],[117.7583922900,24.2781595500],[117.7575589600,24.2781595500],[117.7575589600,24.2773262200],[117.7575589600,24.2764928900],[117.7575589600,24.2756595600],[117.7583922900,24.2756595600],[117.7583922900,24.2748262300],[117.7592256200,24.2748262300],[117.7592256200,24.2739929000],[117.7583922900,24.2739929000],[117.7583922900,24.2731595700],[117.7575589600,24.2731595700],[117.7575589600,24.2723262400],[117.7567256300,24.2723262400],[117.7567256300,24.2714929100],[117.7558923000,24.2714929100],[117.7558923000,24.2706595800],[117.7558923000,24.2698262500],[117.7550589700,24.2698262500],[117.7550589700,24.2689929200],[117.7550589700,24.2681595900],[117.7542256400,24.2681595900],[117.7542256400,24.2673262600],[117.7542256400,24.2664929300],[117.7533923100,24.2664929300],[117.7533923100,24.2656596000],[117.7525589800,24.2656596000],[117.7517256500,24.2656596000],[117.7508923200,24.2656596000],[117.7500589900,24.2656596000],[117.7500589900,24.2664929300],[117.7492256600,24.2664929300],[117.7483923300,24.2664929300],[117.7483923300,24.2673262600],[117.7483923300,24.2681595900],[117.7475590000,24.2681595900],[117.7475590000,24.2689929200],[117.7467256700,24.2689929200],[117.7458923400,24.2689929200],[117.7450590100,24.2689929200],[117.7442256800,24.2689929200],[117.7433923500,24.2689929200],[117.7433923500,24.2698262500],[117.7425590200,24.2698262500],[117.7425590200,24.2706595800],[117.7417256900,24.2706595800],[117.7408923600,24.2706595800],[117.7408923600,24.2714929100],[117.7400590300,24.2714929100],[117.7400590300,24.2723262400],[117.7392257000,24.2723262400],[117.7392257000,24.2714929100],[117.7383923700,24.2714929100],[117.7375590400,24.2714929100],[117.7375590400,24.2706595800],[117.7375590400,24.2698262500],[117.7375590400,24.2689929200],[117.7367257100,24.2689929200],[117.7358923800,24.2689929200],[117.7358923800,24.2681595900],[117.7350590500,24.2681595900],[117.7350590500,24.2673262600],[117.7350590500,24.2664929300],[117.7342257200,24.2664929300],[117.7333923900,24.2664929300],[117.7333923900,24.2673262600],[117.7325590600,24.2673262600],[117.7317257300,24.2673262600],[117.7308924000,24.2673262600],[117.7300590700,24.2673262600],[117.7300590700,24.2664929300],[117.7300590700,24.2656596000],[117.7300590700,24.2648262700],[117.7308924000,24.2648262700],[117.7308924000,24.2639929400],[117.7308924000,24.2631596100],[117.7308924000,24.2623262800],[117.7317257300,24.2623262800],[117.7317257300,24.2614929500],[117.7317257300,24.2606596200],[117.7317257300,24.2598262900],[117.7308924000,24.2598262900],[117.7308924000,24.2589929600],[117.7308924000,24.2581596300],[117.7308924000,24.2573263000],[117.7308924000,24.2564929700],[117.7317257300,24.2564929700],[117.7317257300,24.2556596400],[117.7308924000,24.2556596400],[117.7308924000,24.2548263100],[117.7317257300,24.2548263100],[117.7317257300,24.2539929800],[117.7317257300,24.2531596500],[117.7317257300,24.2523263200],[117.7325590600,24.2523263200],[117.7325590600,24.2514929900],[117.7333923900,24.2514929900],[117.7333923900,24.2506596600],[117.7342257200,24.2506596600],[117.7350590500,24.2506596600],[117.7358923800,24.2506596600],[117.7367257100,24.2506596600],[117.7375590400,24.2506596600],[117.7383923700,24.2506596600],[117.7392257000,24.2506596600],[117.7392257000,24.2498263300],[117.7400590300,24.2498263300],[117.7408923600,24.2498263300],[117.7408923600,24.2489930000],[117.7417256900,24.2489930000],[117.7425590200,24.2489930000],[117.7425590200,24.2481596700],[117.7433923500,24.2481596700],[117.7442256800,24.2481596700],[117.7450590100,24.2481596700],[117.7450590100,24.2473263400],[117.7458923400,24.2473263400],[117.7458923400,24.2464930100],[117.7458923400,24.2456596800],[117.7467256700,24.2456596800],[117.7467256700,24.2448263500],[117.7467256700,24.2439930200],[117.7467256700,24.2431596900],[117.7458923400,24.2431596900],[117.7458923400,24.2423263600],[117.7458923400,24.2414930300],[117.7458923400,24.2406597000],[117.7467256700,24.2406597000],[117.7467256700,24.2398263700],[117.7475590000,24.2398263700],[117.7475590000,24.2389930400],[117.7475590000,24.2381597100],[117.7467256700,24.2381597100],[117.7467256700,24.2373263800],[117.7467256700,24.2364930500],[117.7467256700,24.2356597200],[117.7458923400,24.2356597200],[117.7458923400,24.2348263900],[117.7450590100,24.2348263900],[117.7450590100,24.2339930600],[117.7458923400,24.2339930600],[117.7458923400,24.2331597300],[117.7458923400,24.2323264000],[117.7467256700,24.2323264000],[117.7475590000,24.2323264000],[117.7475590000,24.2314930700],[117.7475590000,24.2306597400],[117.7475590000,24.2298264100],[117.7483923300,24.2298264100],[117.7492256600,24.2298264100],[117.7500589900,24.2298264100],[117.7508923200,24.2298264100],[117.7508923200,24.2289930800],[117.7508923200,24.2281597500],[117.7508923200,24.2273264200],[117.7500589900,24.2273264200],[117.7500589900,24.2264930900],[117.7508923200,24.2264930900],[117.7508923200,24.2256597600],[117.7508923200,24.2248264300],[117.7508923200,24.2239931000],[117.7517256500,24.2239931000],[117.7525589800,24.2239931000],[117.7525589800,24.2231597700],[117.7525589800,24.2223264400],[117.7533923100,24.2223264400],[117.7533923100,24.2214931100],[117.7525589800,24.2214931100],[117.7525589800,24.2206597800],[117.7517256500,24.2206597800],[117.7517256500,24.2198264500],[117.7508923200,24.2198264500],[117.7508923200,24.2189931200],[117.7508923200,24.2181597900],[117.7500589900,24.2181597900],[117.7492256600,24.2181597900],[117.7492256600,24.2173264600],[117.7483923300,24.2173264600],[117.7475590000,24.2173264600],[117.7467256700,24.2173264600],[117.7467256700,24.2164931300],[117.7458923400,24.2164931300],[117.7450590100,24.2164931300],[117.7442256800,24.2164931300],[117.7442256800,24.2156598000],[117.7433923500,24.2156598000],[117.7425590200,24.2156598000],[117.7425590200,24.2148264700],[117.7417256900,24.2148264700],[117.7408923600,24.2148264700],[117.7408923600,24.2139931400],[117.7400590300,24.2139931400],[117.7400590300,24.2148264700],[117.7392257000,24.2148264700],[117.7392257000,24.2156598000],[117.7383923700,24.2156598000],[117.7383923700,24.2148264700],[117.7375590400,24.2148264700],[117.7367257100,24.2148264700],[117.7367257100,24.2139931400],[117.7358923800,24.2139931400],[117.7350590500,24.2139931400],[117.7350590500,24.2148264700],[117.7342257200,24.2148264700],[117.7333923900,24.2148264700],[117.7325590600,24.2148264700],[117.7325590600,24.2139931400],[117.7317257300,24.2139931400],[117.7317257300,24.2131598100],[117.7317257300,24.2123264800],[117.7317257300,24.2114931500],[117.7308924000,24.2114931500],[117.7308924000,24.2106598200],[117.7308924000,24.2098264900],[117.7308924000,24.2089931600],[117.7300590700,24.2089931600],[117.7300590700,24.2081598300],[117.7292257400,24.2081598300],[117.7283924100,24.2081598300],[117.7275590800,24.2081598300],[117.7267257500,24.2081598300],[117.7258924200,24.2081598300],[117.7250590900,24.2081598300],[117.7250590900,24.2073265000],[117.7242257600,24.2073265000],[117.7233924300,24.2073265000],[117.7233924300,24.2064931700],[117.7225591000,24.2064931700],[117.7217257700,24.2064931700],[117.7208924400,24.2064931700],[117.7200591100,24.2064931700],[117.7192257800,24.2064931700],[117.7183924500,24.2064931700],[117.7175591200,24.2064931700],[117.7175591200,24.2073265000],[117.7167257900,24.2073265000],[117.7158924600,24.2073265000],[117.7150591300,24.2073265000],[117.7142258000,24.2073265000],[117.7142258000,24.2064931700],[117.7133924700,24.2064931700],[117.7133924700,24.2073265000],[117.7125591400,24.2073265000],[117.7117258100,24.2073265000],[117.7117258100,24.2081598300],[117.7108924800,24.2081598300],[117.7100591500,24.2081598300],[117.7100591500,24.2089931600],[117.7092258200,24.2089931600],[117.7083924900,24.2089931600],[117.7075591600,24.2089931600],[117.7075591600,24.2098264900],[117.7067258300,24.2098264900],[117.7058925000,24.2098264900],[117.7058925000,24.2106598200],[117.7050591700,24.2106598200],[117.7042258400,24.2106598200],[117.7042258400,24.2098264900],[117.7050591700,24.2098264900],[117.7050591700,24.2089931600],[117.7050591700,24.2081598300],[117.7042258400,24.2081598300],[117.7042258400,24.2073265000],[117.7042258400,24.2064931700],[117.7033925100,24.2064931700],[117.7033925100,24.2056598400],[117.7025591800,24.2056598400],[117.7017258500,24.2056598400],[117.7008925200,24.2056598400],[117.7000591900,24.2056598400],[117.6992258600,24.2056598400],[117.6983925300,24.2056598400],[117.6983925300,24.2064931700],[117.6975592000,24.2064931700],[117.6975592000,24.2073265000],[117.6967258700,24.2073265000],[117.6958925400,24.2073265000],[117.6950592100,24.2073265000],[117.6950592100,24.2081598300],[117.6942258800,24.2081598300],[117.6942258800,24.2089931600],[117.6933925500,24.2089931600],[117.6925592200,24.2089931600],[117.6925592200,24.2098264900],[117.6917258900,24.2098264900],[117.6908925600,24.2098264900],[117.6900592300,24.2098264900],[117.6900592300,24.2106598200],[117.6892259000,24.2106598200],[117.6883925700,24.2106598200],[117.6875592400,24.2106598200],[117.6867259100,24.2106598200],[117.6867259100,24.2114931500],[117.6858925800,24.2114931500],[117.6850592500,24.2114931500],[117.6842259200,24.2114931500],[117.6833925900,24.2114931500],[117.6825592600,24.2114931500],[117.6817259300,24.2114931500],[117.6808926000,24.2114931500],[117.6800592700,24.2114931500],[117.6800592700,24.2106598200],[117.6792259400,24.2106598200],[117.6783926100,24.2106598200],[117.6775592800,24.2106598200],[117.6775592800,24.2098264900],[117.6775592800,24.2089931600],[117.6767259500,24.2089931600],[117.6767259500,24.2081598300],[117.6775592800,24.2081598300],[117.6775592800,24.2073265000],[117.6775592800,24.2064931700],[117.6775592800,24.2056598400],[117.6775592800,24.2048265100],[117.6767259500,24.2048265100],[117.6758926200,24.2048265100],[117.6750592900,24.2048265100],[117.6742259600,24.2048265100],[117.6742259600,24.2039931800],[117.6733926300,24.2039931800],[117.6725593000,24.2039931800],[117.6717259700,24.2039931800],[117.6708926400,24.2039931800],[117.6700593100,24.2039931800],[117.6692259800,24.2039931800],[117.6692259800,24.2031598500],[117.6683926500,24.2031598500],[117.6675593200,24.2031598500],[117.6667259900,24.2031598500],[117.6667259900,24.2023265200],[117.6658926600,24.2023265200],[117.6650593300,24.2023265200],[117.6650593300,24.2031598500],[117.6642260000,24.2031598500],[117.6642260000,24.2039931800],[117.6633926700,24.2039931800],[117.6625593400,24.2039931800],[117.6625593400,24.2048265100],[117.6617260100,24.2048265100],[117.6608926800,24.2048265100],[117.6600593500,24.2048265100],[117.6592260200,24.2048265100],[117.6583926900,24.2048265100],[117.6583926900,24.2056598400],[117.6575593600,24.2056598400],[117.6575593600,24.2064931700],[117.6567260300,24.2064931700],[117.6567260300,24.2073265000],[117.6567260300,24.2081598300],[117.6567260300,24.2089931600],[117.6558927000,24.2089931600],[117.6558927000,24.2098264900],[117.6550593700,24.2098264900],[117.6542260400,24.2098264900],[117.6533927100,24.2098264900],[117.6525593800,24.2098264900],[117.6525593800,24.2106598200],[117.6517260500,24.2106598200],[117.6517260500,24.2098264900],[117.6508927200,24.2098264900],[117.6500593900,24.2098264900],[117.6492260600,24.2098264900],[117.6483927300,24.2098264900],[117.6483927300,24.2089931600],[117.6475594000,24.2089931600],[117.6467260700,24.2089931600],[117.6467260700,24.2081598300],[117.6458927400,24.2081598300],[117.6450594100,24.2081598300],[117.6450594100,24.2073265000],[117.6442260800,24.2073265000],[117.6442260800,24.2064931700],[117.6433927500,24.2064931700],[117.6425594200,24.2064931700],[117.6425594200,24.2073265000],[117.6417260900,24.2073265000],[117.6408927600,24.2073265000],[117.6408927600,24.2064931700],[117.6400594300,24.2064931700],[117.6392261000,24.2064931700],[117.6392261000,24.2073265000],[117.6383927700,24.2073265000],[117.6383927700,24.2081598300],[117.6375594400,24.2081598300],[117.6375594400,24.2073265000],[117.6367261100,24.2073265000],[117.6367261100,24.2064931700],[117.6358927800,24.2064931700],[117.6358927800,24.2056598400],[117.6350594500,24.2056598400],[117.6350594500,24.2048265100],[117.6342261200,24.2048265100],[117.6342261200,24.2056598400],[117.6342261200,24.2064931700],[117.6342261200,24.2073265000],[117.6333927900,24.2073265000],[117.6333927900,24.2081598300],[117.6325594600,24.2081598300],[117.6317261300,24.2081598300],[117.6317261300,24.2089931600],[117.6308928000,24.2089931600],[117.6308928000,24.2098264900],[117.6300594700,24.2098264900],[117.6292261400,24.2098264900],[117.6283928100,24.2098264900],[117.6283928100,24.2106598200],[117.6283928100,24.2114931500],[117.6283928100,24.2123264800],[117.6292261400,24.2123264800],[117.6292261400,24.2131598100],[117.6283928100,24.2131598100],[117.6283928100,24.2139931400],[117.6283928100,24.2148264700],[117.6283928100,24.2156598000],[117.6283928100,24.2164931300],[117.6283928100,24.2173264600],[117.6275594800,24.2173264600],[117.6275594800,24.2181597900],[117.6267261500,24.2181597900],[117.6267261500,24.2189931200],[117.6267261500,24.2198264500],[117.6267261500,24.2206597800],[117.6258928200,24.2206597800],[117.6250594900,24.2206597800],[117.6242261600,24.2206597800],[117.6233928300,24.2206597800],[117.6225595000,24.2206597800],[117.6217261700,24.2206597800],[117.6208928400,24.2206597800],[117.6208928400,24.2214931100],[117.6200595100,24.2214931100],[117.6192261800,24.2214931100],[117.6183928500,24.2214931100],[117.6183928500,24.2206597800],[117.6175595200,24.2206597800],[117.6167261900,24.2206597800],[117.6167261900,24.2214931100],[117.6158928600,24.2214931100],[117.6150595300,24.2214931100],[117.6142262000,24.2214931100],[117.6142262000,24.2223264400],[117.6133928700,24.2223264400],[117.6125595400,24.2223264400],[117.6117262100,24.2223264400],[117.6117262100,24.2231597700],[117.6108928800,24.2231597700],[117.6108928800,24.2239931000],[117.6100595500,24.2239931000],[117.6100595500,24.2248264300],[117.6092262200,24.2248264300],[117.6083928900,24.2248264300],[117.6083928900,24.2256597600],[117.6083928900,24.2264930900],[117.6083928900,24.2273264200],[117.6075595600,24.2273264200],[117.6075595600,24.2281597500],[117.6067262300,24.2281597500],[117.6067262300,24.2289930800],[117.6067262300,24.2298264100],[117.6067262300,24.2306597400],[117.6058929000,24.2306597400],[117.6058929000,24.2314930700],[117.6050595700,24.2314930700],[117.6050595700,24.2323264000],[117.6042262400,24.2323264000],[117.6042262400,24.2331597300],[117.6033929100,24.2331597300],[117.6033929100,24.2339930600],[117.6033929100,24.2348263900],[117.6033929100,24.2356597200],[117.6033929100,24.2364930500],[117.6033929100,24.2373263800],[117.6033929100,24.2381597100],[117.6033929100,24.2389930400],[117.6025595800,24.2389930400],[117.6025595800,24.2398263700],[117.6025595800,24.2406597000],[117.6025595800,24.2414930300],[117.6025595800,24.2423263600],[117.6017262500,24.2423263600],[117.6017262500,24.2431596900],[117.6025595800,24.2431596900],[117.6025595800,24.2439930200],[117.6025595800,24.2448263500],[117.6025595800,24.2456596800],[117.6017262500,24.2456596800],[117.6017262500,24.2464930100],[117.6008929200,24.2464930100],[117.6008929200,24.2473263400],[117.6000595900,24.2473263400],[117.6000595900,24.2481596700],[117.6000595900,24.2489930000],[117.5992262600,24.2489930000],[117.5992262600,24.2498263300],[117.5992262600,24.2506596600],[117.5992262600,24.2514929900],[117.5983929300,24.2514929900],[117.5975596000,24.2514929900],[117.5967262700,24.2514929900],[117.5958929400,24.2514929900],[117.5958929400,24.2523263200],[117.5950596100,24.2523263200],[117.5942262800,24.2523263200],[117.5933929500,24.2523263200],[117.5933929500,24.2531596500],[117.5925596200,24.2531596500],[117.5925596200,24.2539929800],[117.5917262900,24.2539929800],[117.5908929600,24.2539929800],[117.5908929600,24.2531596500],[117.5900596300,24.2531596500],[117.5892263000,24.2531596500],[117.5883929700,24.2531596500],[117.5875596400,24.2531596500],[117.5867263100,24.2531596500],[117.5858929800,24.2531596500],[117.5858929800,24.2539929800],[117.5858929800,24.2548263100],[117.5858929800,24.2556596400],[117.5858929800,24.2564929700],[117.5850596500,24.2564929700],[117.5850596500,24.2573263000],[117.5850596500,24.2581596300],[117.5842263200,24.2581596300],[117.5842263200,24.2589929600],[117.5833929900,24.2589929600],[117.5833929900,24.2598262900],[117.5825596600,24.2598262900],[117.5825596600,24.2606596200],[117.5825596600,24.2614929500],[117.5825596600,24.2623262800],[117.5817263300,24.2623262800],[117.5817263300,24.2631596100],[117.5808930000,24.2631596100],[117.5808930000,24.2639929400],[117.5800596700,24.2639929400],[117.5800596700,24.2648262700],[117.5792263400,24.2648262700],[117.5792263400,24.2639929400],[117.5783930100,24.2639929400],[117.5783930100,24.2648262700],[117.5775596800,24.2648262700],[117.5767263500,24.2648262700],[117.5758930200,24.2648262700],[117.5750596900,24.2648262700],[117.5742263600,24.2648262700],[117.5733930300,24.2648262700],[117.5733930300,24.2639929400],[117.5725597000,24.2639929400],[117.5725597000,24.2631596100],[117.5717263700,24.2631596100],[117.5717263700,24.2623262800],[117.5708930400,24.2623262800],[117.5700597100,24.2623262800],[117.5700597100,24.2614929500],[117.5692263800,24.2614929500],[117.5683930500,24.2614929500],[117.5683930500,24.2606596200],[117.5675597200,24.2606596200],[117.5675597200,24.2598262900],[117.5667263900,24.2598262900],[117.5667263900,24.2589929600],[117.5658930600,24.2589929600],[117.5658930600,24.2581596300],[117.5650597300,24.2581596300],[117.5650597300,24.2573263000],[117.5642264000,24.2573263000],[117.5642264000,24.2564929700],[117.5642264000,24.2556596400],[117.5633930700,24.2556596400],[117.5633930700,24.2548263100],[117.5642264000,24.2548263100],[117.5642264000,24.2539929800],[117.5642264000,24.2531596500],[117.5642264000,24.2523263200],[117.5650597300,24.2523263200],[117.5650597300,24.2514929900],[117.5650597300,24.2506596600],[117.5658930600,24.2506596600],[117.5658930600,24.2498263300],[117.5658930600,24.2489930000],[117.5650597300,24.2489930000],[117.5650597300,24.2481596700],[117.5650597300,24.2473263400],[117.5642264000,24.2473263400],[117.5633930700,24.2473263400],[117.5633930700,24.2464930100],[117.5625597400,24.2464930100],[117.5625597400,24.2456596800],[117.5617264100,24.2456596800],[117.5617264100,24.2448263500],[117.5608930800,24.2448263500],[117.5608930800,24.2439930200],[117.5608930800,24.2431596900],[117.5608930800,24.2423263600],[117.5608930800,24.2414930300],[117.5608930800,24.2406597000],[117.5600597500,24.2406597000],[117.5592264200,24.2406597000],[117.5583930900,24.2406597000],[117.5575597600,24.2406597000],[117.5567264300,24.2406597000],[117.5558931000,24.2406597000],[117.5550597700,24.2406597000],[117.5542264400,24.2406597000],[117.5533931100,24.2406597000],[117.5533931100,24.2398263700],[117.5525597800,24.2398263700],[117.5525597800,24.2389930400],[117.5517264500,24.2389930400],[117.5517264500,24.2381597100],[117.5508931200,24.2381597100],[117.5508931200,24.2373263800],[117.5500597900,24.2373263800],[117.5500597900,24.2381597100],[117.5492264600,24.2381597100],[117.5492264600,24.2373263800],[117.5483931300,24.2373263800],[117.5483931300,24.2364930500],[117.5475598000,24.2364930500],[117.5475598000,24.2356597200],[117.5475598000,24.2348263900],[117.5467264700,24.2348263900],[117.5467264700,24.2339930600],[117.5467264700,24.2331597300],[117.5467264700,24.2323264000],[117.5467264700,24.2314930700],[117.5458931400,24.2314930700],[117.5458931400,24.2306597400],[117.5450598100,24.2306597400],[117.5442264800,24.2306597400],[117.5442264800,24.2298264100],[117.5433931500,24.2298264100],[117.5433931500,24.2289930800],[117.5425598200,24.2289930800],[117.5417264900,24.2289930800],[117.5417264900,24.2281597500],[117.5408931600,24.2281597500],[117.5400598300,24.2281597500],[117.5400598300,24.2289930800],[117.5392265000,24.2289930800],[117.5392265000,24.2298264100],[117.5383931700,24.2298264100],[117.5383931700,24.2306597400],[117.5375598400,24.2306597400],[117.5367265100,24.2306597400],[117.5358931800,24.2306597400],[117.5350598500,24.2306597400],[117.5350598500,24.2314930700],[117.5342265200,24.2314930700],[117.5342265200,24.2323264000],[117.5333931900,24.2323264000],[117.5333931900,24.2314930700],[117.5325598600,24.2314930700],[117.5317265300,24.2314930700],[117.5317265300,24.2306597400],[117.5308932000,24.2306597400],[117.5300598700,24.2306597400],[117.5292265400,24.2306597400],[117.5292265400,24.2298264100],[117.5283932100,24.2298264100],[117.5275598800,24.2298264100],[117.5275598800,24.2289930800],[117.5267265500,24.2289930800],[117.5258932200,24.2289930800],[117.5250598900,24.2289930800],[117.5242265600,24.2289930800],[117.5233932300,24.2289930800],[117.5233932300,24.2281597500],[117.5225599000,24.2281597500],[117.5217265700,24.2281597500],[117.5208932400,24.2281597500],[117.5200599100,24.2281597500],[117.5200599100,24.2273264200],[117.5192265800,24.2273264200],[117.5192265800,24.2264930900],[117.5183932500,24.2264930900],[117.5183932500,24.2256597600],[117.5175599200,24.2256597600],[117.5167265900,24.2256597600],[117.5167265900,24.2248264300],[117.5158932600,24.2248264300],[117.5150599300,24.2248264300],[117.5142266000,24.2248264300],[117.5142266000,24.2239931000],[117.5133932700,24.2239931000],[117.5125599400,24.2239931000],[117.5117266100,24.2239931000],[117.5117266100,24.2248264300],[117.5108932800,24.2248264300],[117.5108932800,24.2256597600],[117.5100599500,24.2256597600],[117.5100599500,24.2264930900],[117.5092266200,24.2264930900],[117.5092266200,24.2273264200],[117.5092266200,24.2281597500],[117.5092266200,24.2289930800],[117.5083932900,24.2289930800],[117.5083932900,24.2298264100],[117.5083932900,24.2306597400],[117.5083932900,24.2314930700],[117.5075599600,24.2314930700],[117.5075599600,24.2323264000],[117.5075599600,24.2331597300],[117.5075599600,24.2339930600],[117.5075599600,24.2348263900],[117.5067266300,24.2348263900],[117.5067266300,24.2356597200],[117.5067266300,24.2364930500],[117.5058933000,24.2364930500],[117.5050599700,24.2364930500],[117.5050599700,24.2373263800],[117.5042266400,24.2373263800],[117.5033933100,24.2373263800],[117.5033933100,24.2381597100],[117.5025599800,24.2381597100],[117.5017266500,24.2381597100],[117.5017266500,24.2389930400],[117.5008933200,24.2389930400],[117.5008933200,24.2398263700],[117.5000599900,24.2398263700],[117.5000599900,24.2406597000],[117.5000599900,24.2414930300],[117.4992266600,24.2414930300],[117.4992266600,24.2423263600],[117.4983933300,24.2423263600],[117.4975600000,24.2423263600],[117.4975600000,24.2431596900],[117.4975600000,24.2439930200],[117.4975600000,24.2448263500],[117.4983933300,24.2448263500],[117.4983933300,24.2456596800],[117.4975600000,24.2456596800],[117.4967266700,24.2456596800],[117.4967266700,24.2464930100],[117.4958933400,24.2464930100],[117.4958933400,24.2473263400],[117.4950600100,24.2473263400],[117.4950600100,24.2481596700],[117.4950600100,24.2489930000],[117.4942266800,24.2489930000],[117.4933933500,24.2489930000],[117.4933933500,24.2498263300],[117.4925600200,24.2498263300],[117.4925600200,24.2506596600],[117.4917266900,24.2506596600],[117.4908933600,24.2506596600],[117.4908933600,24.2514929900],[117.4900600300,24.2514929900],[117.4900600300,24.2523263200],[117.4892267000,24.2523263200],[117.4892267000,24.2531596500],[117.4883933700,24.2531596500],[117.4883933700,24.2539929800],[117.4875600400,24.2539929800],[117.4875600400,24.2548263100],[117.4867267100,24.2548263100],[117.4867267100,24.2556596400],[117.4858933800,24.2556596400],[117.4850600500,24.2556596400],[117.4842267200,24.2556596400],[117.4833933900,24.2556596400],[117.4825600600,24.2556596400],[117.4825600600,24.2564929700],[117.4817267300,24.2564929700],[117.4808934000,24.2564929700],[117.4800600700,24.2564929700],[117.4792267400,24.2564929700],[117.4783934100,24.2564929700],[117.4783934100,24.2573263000],[117.4775600800,24.2573263000],[117.4767267500,24.2573263000],[117.4767267500,24.2564929700],[117.4758934200,24.2564929700],[117.4758934200,24.2556596400],[117.4750600900,24.2556596400],[117.4742267600,24.2556596400],[117.4733934300,24.2556596400],[117.4733934300,24.2564929700],[117.4725601000,24.2564929700],[117.4725601000,24.2573263000],[117.4717267700,24.2573263000],[117.4717267700,24.2581596300],[117.4708934400,24.2581596300],[117.4700601100,24.2581596300],[117.4692267800,24.2581596300],[117.4683934500,24.2581596300],[117.4675601200,24.2581596300],[117.4675601200,24.2589929600],[117.4667267900,24.2589929600],[117.4658934600,24.2589929600],[117.4658934600,24.2598262900],[117.4650601300,24.2598262900],[117.4642268000,24.2598262900],[117.4633934700,24.2598262900],[117.4633934700,24.2606596200],[117.4625601400,24.2606596200],[117.4617268100,24.2606596200],[117.4617268100,24.2614929500],[117.4608934800,24.2614929500],[117.4600601500,24.2614929500],[117.4600601500,24.2623262800],[117.4592268200,24.2623262800],[117.4583934900,24.2623262800],[117.4575601600,24.2623262800],[117.4575601600,24.2614929500],[117.4575601600,24.2606596200],[117.4575601600,24.2598262900],[117.4575601600,24.2589929600],[117.4567268300,24.2589929600],[117.4558935000,24.2589929600],[117.4550601700,24.2589929600],[117.4542268400,24.2589929600],[117.4533935100,24.2589929600],[117.4525601800,24.2589929600],[117.4517268500,24.2589929600],[117.4517268500,24.2598262900],[117.4508935200,24.2598262900],[117.4500601900,24.2598262900],[117.4500601900,24.2606596200],[117.4492268600,24.2606596200],[117.4483935300,24.2606596200],[117.4483935300,24.2614929500],[117.4475602000,24.2614929500],[117.4467268700,24.2614929500],[117.4467268700,24.2623262800],[117.4458935400,24.2623262800],[117.4458935400,24.2614929500],[117.4450602100,24.2614929500],[117.4450602100,24.2606596200],[117.4442268800,24.2606596200],[117.4433935500,24.2606596200],[117.4433935500,24.2598262900],[117.4433935500,24.2589929600],[117.4442268800,24.2589929600],[117.4442268800,24.2581596300],[117.4450602100,24.2581596300],[117.4458935400,24.2581596300],[117.4458935400,24.2573263000],[117.4458935400,24.2564929700],[117.4458935400,24.2556596400],[117.4458935400,24.2548263100],[117.4450602100,24.2548263100],[117.4450602100,24.2539929800],[117.4450602100,24.2531596500],[117.4458935400,24.2531596500],[117.4458935400,24.2523263200],[117.4467268700,24.2523263200],[117.4467268700,24.2514929900],[117.4467268700,24.2506596600],[117.4467268700,24.2498263300],[117.4475602000,24.2498263300],[117.4475602000,24.2489930000],[117.4483935300,24.2489930000],[117.4483935300,24.2481596700],[117.4492268600,24.2481596700],[117.4492268600,24.2473263400],[117.4492268600,24.2464930100],[117.4492268600,24.2456596800],[117.4483935300,24.2456596800],[117.4475602000,24.2456596800],[117.4467268700,24.2456596800],[117.4467268700,24.2448263500],[117.4458935400,24.2448263500],[117.4458935400,24.2439930200],[117.4450602100,24.2439930200],[117.4450602100,24.2431596900],[117.4442268800,24.2431596900],[117.4442268800,24.2423263600],[117.4433935500,24.2423263600],[117.4433935500,24.2414930300],[117.4425602200,24.2414930300],[117.4417268900,24.2414930300],[117.4417268900,24.2423263600],[117.4408935600,24.2423263600],[117.4400602300,24.2423263600],[117.4400602300,24.2431596900],[117.4392269000,24.2431596900],[117.4383935700,24.2431596900],[117.4375602400,24.2431596900],[117.4367269100,24.2431596900],[117.4367269100,24.2423263600],[117.4358935800,24.2423263600],[117.4358935800,24.2414930300],[117.4350602500,24.2414930300],[117.4350602500,24.2406597000],[117.4342269200,24.2406597000],[117.4333935900,24.2406597000],[117.4325602600,24.2406597000],[117.4325602600,24.2414930300],[117.4317269300,24.2414930300],[117.4317269300,24.2423263600],[117.4308936000,24.2423263600],[117.4308936000,24.2431596900],[117.4300602700,24.2431596900],[117.4292269400,24.2431596900],[117.4283936100,24.2431596900],[117.4283936100,24.2423263600],[117.4275602800,24.2423263600],[117.4267269500,24.2423263600],[117.4258936200,24.2423263600],[117.4258936200,24.2431596900],[117.4250602900,24.2431596900],[117.4242269600,24.2431596900],[117.4242269600,24.2439930200],[117.4233936300,24.2439930200],[117.4225603000,24.2439930200],[117.4225603000,24.2448263500],[117.4217269700,24.2448263500],[117.4217269700,24.2456596800],[117.4225603000,24.2456596800],[117.4225603000,24.2464930100],[117.4233936300,24.2464930100],[117.4233936300,24.2473263400],[117.4233936300,24.2481596700],[117.4233936300,24.2489930000],[117.4225603000,24.2489930000],[117.4225603000,24.2498263300],[117.4225603000,24.2506596600],[117.4233936300,24.2506596600],[117.4233936300,24.2514929900],[117.4233936300,24.2523263200],[117.4233936300,24.2531596500],[117.4225603000,24.2531596500],[117.4217269700,24.2531596500],[117.4217269700,24.2539929800],[117.4208936400,24.2539929800],[117.4208936400,24.2548263100],[117.4200603100,24.2548263100],[117.4200603100,24.2556596400],[117.4200603100,24.2564929700],[117.4200603100,24.2573263000],[117.4200603100,24.2581596300],[117.4192269800,24.2581596300],[117.4183936500,24.2581596300],[117.4183936500,24.2589929600],[117.4175603200,24.2589929600],[117.4175603200,24.2598262900],[117.4167269900,24.2598262900],[117.4167269900,24.2606596200],[117.4158936600,24.2606596200],[117.4158936600,24.2614929500],[117.4158936600,24.2623262800],[117.4158936600,24.2631596100],[117.4158936600,24.2639929400],[117.4158936600,24.2648262700],[117.4158936600,24.2656596000],[117.4158936600,24.2664929300],[117.4150603300,24.2664929300],[117.4150603300,24.2673262600],[117.4142270000,24.2673262600],[117.4142270000,24.2681595900],[117.4142270000,24.2689929200],[117.4133936700,24.2689929200],[117.4133936700,24.2698262500],[117.4125603400,24.2698262500],[117.4117270100,24.2698262500],[117.4108936800,24.2698262500],[117.4108936800,24.2706595800],[117.4100603500,24.2706595800],[117.4100603500,24.2714929100],[117.4092270200,24.2714929100],[117.4083936900,24.2714929100],[117.4083936900,24.2723262400],[117.4075603600,24.2723262400],[117.4075603600,24.2731595700],[117.4067270300,24.2731595700],[117.4067270300,24.2739929000],[117.4058937000,24.2739929000],[117.4058937000,24.2748262300],[117.4050603700,24.2748262300],[117.4042270400,24.2748262300],[117.4042270400,24.2756595600],[117.4042270400,24.2764928900],[117.4033937100,24.2764928900],[117.4033937100,24.2773262200],[117.4033937100,24.2781595500],[117.4025603800,24.2781595500],[117.4025603800,24.2789928800],[117.4017270500,24.2789928800],[117.4017270500,24.2798262100],[117.4025603800,24.2798262100],[117.4025603800,24.2806595400],[117.4033937100,24.2806595400],[117.4042270400,24.2806595400],[117.4050603700,24.2806595400],[117.4058937000,24.2806595400],[117.4058937000,24.2814928700],[117.4067270300,24.2814928700],[117.4075603600,24.2814928700],[117.4083936900,24.2814928700],[117.4083936900,24.2823262000],[117.4092270200,24.2823262000],[117.4100603500,24.2823262000],[117.4100603500,24.2831595300],[117.4108936800,24.2831595300],[117.4108936800,24.2839928600],[117.4117270100,24.2839928600],[117.4117270100,24.2848261900],[117.4125603400,24.2848261900],[117.4125603400,24.2856595200],[117.4133936700,24.2856595200],[117.4133936700,24.2864928500],[117.4133936700,24.2873261800],[117.4142270000,24.2873261800],[117.4142270000,24.2881595100],[117.4150603300,24.2881595100],[117.4150603300,24.2889928400],[117.4158936600,24.2889928400],[117.4167269900,24.2889928400],[117.4167269900,24.2898261700],[117.4175603200,24.2898261700],[117.4175603200,24.2906595000],[117.4183936500,24.2906595000],[117.4192269800,24.2906595000],[117.4192269800,24.2914928300],[117.4200603100,24.2914928300],[117.4200603100,24.2923261600],[117.4200603100,24.2931594900],[117.4200603100,24.2939928200],[117.4200603100,24.2948261500],[117.4208936400,24.2948261500],[117.4208936400,24.2956594800],[117.4208936400,24.2964928100],[117.4217269700,24.2964928100],[117.4225603000,24.2964928100],[117.4233936300,24.2964928100],[117.4242269600,24.2964928100],[117.4250602900,24.2964928100],[117.4250602900,24.2973261400],[117.4258936200,24.2973261400],[117.4258936200,24.2981594700],[117.4267269500,24.2981594700],[117.4267269500,24.2989928000],[117.4275602800,24.2989928000],[117.4275602800,24.2998261300],[117.4283936100,24.2998261300],[117.4283936100,24.3006594600],[117.4292269400,24.3006594600],[117.4300602700,24.3006594600],[117.4300602700,24.3014927900],[117.4308936000,24.3014927900],[117.4317269300,24.3014927900],[117.4325602600,24.3014927900],[117.4325602600,24.3023261200],[117.4333935900,24.3023261200],[117.4342269200,24.3023261200],[117.4350602500,24.3023261200],[117.4358935800,24.3023261200],[117.4367269100,24.3023261200],[117.4367269100,24.3031594500],[117.4375602400,24.3031594500],[117.4375602400,24.3039927800],[117.4383935700,24.3039927800],[117.4383935700,24.3048261100],[117.4383935700,24.3056594400],[117.4383935700,24.3064927700],[117.4383935700,24.3073261000],[117.4383935700,24.3081594300],[117.4383935700,24.3089927600],[117.4383935700,24.3098260900],[117.4392269000,24.3098260900],[117.4392269000,24.3106594200],[117.4392269000,24.3114927500],[117.4400602300,24.3114927500],[117.4408935600,24.3114927500],[117.4417268900,24.3114927500],[117.4417268900,24.3106594200],[117.4425602200,24.3106594200],[117.4425602200,24.3098260900],[117.4433935500,24.3098260900],[117.4442268800,24.3098260900],[117.4450602100,24.3098260900],[117.4458935400,24.3098260900],[117.4467268700,24.3098260900],[117.4475602000,24.3098260900],[117.4475602000,24.3089927600],[117.4483935300,24.3089927600],[117.4483935300,24.3081594300],[117.4483935300,24.3073261000],[117.4492268600,24.3073261000],[117.4492268600,24.3064927700],[117.4500601900,24.3064927700],[117.4500601900,24.3073261000],[117.4508935200,24.3073261000],[117.4517268500,24.3073261000],[117.4525601800,24.3073261000],[117.4533935100,24.3073261000],[117.4533935100,24.3064927700],[117.4542268400,24.3064927700],[117.4550601700,24.3064927700],[117.4558935000,24.3064927700],[117.4567268300,24.3064927700],[117.4575601600,24.3064927700],[117.4583934900,24.3064927700],[117.4583934900,24.3073261000],[117.4592268200,24.3073261000],[117.4592268200,24.3081594300],[117.4592268200,24.3089927600],[117.4600601500,24.3089927600],[117.4600601500,24.3098260900],[117.4600601500,24.3106594200],[117.4600601500,24.3114927500],[117.4600601500,24.3123260800],[117.4600601500,24.3131594100],[117.4592268200,24.3131594100],[117.4592268200,24.3139927400],[117.4592268200,24.3148260700],[117.4600601500,24.3148260700],[117.4600601500,24.3156594000],[117.4608934800,24.3156594000],[117.4608934800,24.3164927300],[117.4617268100,24.3164927300],[117.4617268100,24.3173260600],[117.4617268100,24.3181593900],[117.4617268100,24.3189927200],[117.4608934800,24.3189927200],[117.4608934800,24.3198260500],[117.4600601500,24.3198260500],[117.4592268200,24.3198260500],[117.4592268200,24.3206593800],[117.4592268200,24.3214927100],[117.4583934900,24.3214927100],[117.4583934900,24.3223260400],[117.4583934900,24.3231593700],[117.4583934900,24.3239927000],[117.4592268200,24.3239927000],[117.4592268200,24.3248260300],[117.4583934900,24.3248260300],[117.4583934900,24.3256593600],[117.4583934900,24.3264926900],[117.4583934900,24.3273260200],[117.4583934900,24.3281593500],[117.4583934900,24.3289926800],[117.4592268200,24.3289926800],[117.4592268200,24.3298260100],[117.4592268200,24.3306593400],[117.4600601500,24.3306593400],[117.4608934800,24.3306593400],[117.4608934800,24.3314926700],[117.4608934800,24.3323260000],[117.4608934800,24.3331593300],[117.4608934800,24.3339926600],[117.4608934800,24.3348259900],[117.4608934800,24.3356593200],[117.4617268100,24.3356593200],[117.4617268100,24.3364926500],[117.4625601400,24.3364926500],[117.4625601400,24.3373259800],[117.4625601400,24.3381593100],[117.4625601400,24.3389926400],[117.4625601400,24.3398259700],[117.4625601400,24.3406593000],[117.4625601400,24.3414926300],[117.4625601400,24.3423259600],[117.4617268100,24.3423259600],[117.4617268100,24.3431592900],[117.4617268100,24.3439926200],[117.4617268100,24.3448259500],[117.4617268100,24.3456592800],[117.4617268100,24.3464926100],[117.4617268100,24.3473259400],[117.4617268100,24.3481592700],[117.4617268100,24.3489926000],[117.4608934800,24.3489926000],[117.4608934800,24.3498259300],[117.4608934800,24.3506592600],[117.4608934800,24.3514925900],[117.4608934800,24.3523259200],[117.4608934800,24.3531592500],[117.4608934800,24.3539925800],[117.4608934800,24.3548259100],[117.4608934800,24.3556592400],[117.4600601500,24.3556592400],[117.4600601500,24.3564925700],[117.4600601500,24.3573259000],[117.4608934800,24.3573259000],[117.4608934800,24.3581592300],[117.4608934800,24.3589925600],[117.4608934800,24.3598258900],[117.4608934800,24.3606592200],[117.4617268100,24.3606592200],[117.4617268100,24.3614925500],[117.4625601400,24.3614925500],[117.4625601400,24.3623258800],[117.4633934700,24.3623258800],[117.4633934700,24.3631592100],[117.4642268000,24.3631592100],[117.4642268000,24.3639925400],[117.4650601300,24.3639925400],[117.4650601300,24.3648258700],[117.4650601300,24.3656592000],[117.4650601300,24.3664925300],[117.4658934600,24.3664925300],[117.4658934600,24.3673258600],[117.4667267900,24.3673258600],[117.4667267900,24.3681591900],[117.4675601200,24.3681591900],[117.4675601200,24.3689925200],[117.4675601200,24.3698258500],[117.4675601200,24.3706591800],[117.4683934500,24.3706591800],[117.4692267800,24.3706591800],[117.4692267800,24.3714925100],[117.4700601100,24.3714925100],[117.4708934400,24.3714925100],[117.4708934400,24.3706591800],[117.4717267700,24.3706591800],[117.4725601000,24.3706591800],[117.4733934300,24.3706591800],[117.4733934300,24.3714925100],[117.4742267600,24.3714925100],[117.4750600900,24.3714925100],[117.4750600900,24.3723258400],[117.4758934200,24.3723258400],[117.4758934200,24.3731591700],[117.4767267500,24.3731591700],[117.4767267500,24.3739925000],[117.4775600800,24.3739925000],[117.4783934100,24.3739925000],[117.4783934100,24.3748258300],[117.4792267400,24.3748258300],[117.4792267400,24.3756591600],[117.4800600700,24.3756591600],[117.4808934000,24.3756591600],[117.4817267300,24.3756591600],[117.4817267300,24.3764924900],[117.4825600600,24.3764924900],[117.4833933900,24.3764924900],[117.4842267200,24.3764924900],[117.4850600500,24.3764924900],[117.4858933800,24.3764924900],[117.4858933800,24.3756591600],[117.4867267100,24.3756591600],[117.4875600400,24.3756591600],[117.4875600400,24.3748258300],[117.4883933700,24.3748258300],[117.4892267000,24.3748258300],[117.4892267000,24.3739925000],[117.4900600300,24.3739925000],[117.4908933600,24.3739925000],[117.4908933600,24.3731591700],[117.4917266900,24.3731591700],[117.4917266900,24.3723258400],[117.4917266900,24.3714925100],[117.4925600200,24.3714925100],[117.4925600200,24.3706591800],[117.4925600200,24.3698258500],[117.4925600200,24.3689925200],[117.4925600200,24.3681591900],[117.4917266900,24.3681591900],[117.4917266900,24.3673258600],[117.4925600200,24.3673258600],[117.4925600200,24.3664925300],[117.4925600200,24.3656592000],[117.4925600200,24.3648258700],[117.4917266900,24.3648258700],[117.4917266900,24.3639925400],[117.4917266900,24.3631592100],[117.4925600200,24.3631592100],[117.4925600200,24.3623258800],[117.4933933500,24.3623258800],[117.4933933500,24.3614925500],[117.4933933500,24.3606592200],[117.4942266800,24.3606592200],[117.4942266800,24.3598258900],[117.4942266800,24.3589925600],[117.4950600100,24.3589925600],[117.4958933400,24.3589925600],[117.4967266700,24.3589925600],[117.4975600000,24.3589925600],[117.4983933300,24.3589925600],[117.4992266600,24.3589925600],[117.4992266600,24.3581592300],[117.4992266600,24.3573259000],[117.5000599900,24.3573259000],[117.5000599900,24.3581592300],[117.5008933200,24.3581592300],[117.5017266500,24.3581592300],[117.5025599800,24.3581592300],[117.5033933100,24.3581592300],[117.5033933100,24.3589925600],[117.5042266400,24.3589925600],[117.5042266400,24.3581592300],[117.5042266400,24.3573259000],[117.5042266400,24.3564925700],[117.5050599700,24.3564925700],[117.5058933000,24.3564925700],[117.5058933000,24.3573259000],[117.5067266300,24.3573259000],[117.5075599600,24.3573259000],[117.5083932900,24.3573259000],[117.5083932900,24.3564925700],[117.5092266200,24.3564925700],[117.5092266200,24.3556592400],[117.5100599500,24.3556592400],[117.5100599500,24.3548259100],[117.5100599500,24.3539925800],[117.5100599500,24.3531592500],[117.5108932800,24.3531592500],[117.5108932800,24.3523259200],[117.5117266100,24.3523259200],[117.5117266100,24.3531592500],[117.5125599400,24.3531592500],[117.5133932700,24.3531592500],[117.5142266000,24.3531592500],[117.5142266000,24.3539925800],[117.5150599300,24.3539925800],[117.5150599300,24.3548259100],[117.5158932600,24.3548259100],[117.5167265900,24.3548259100],[117.5167265900,24.3539925800],[117.5175599200,24.3539925800],[117.5175599200,24.3531592500],[117.5183932500,24.3531592500],[117.5183932500,24.3523259200],[117.5183932500,24.3514925900],[117.5192265800,24.3514925900],[117.5200599100,24.3514925900],[117.5200599100,24.3523259200],[117.5208932400,24.3523259200],[117.5217265700,24.3523259200],[117.5225599000,24.3523259200],[117.5225599000,24.3531592500],[117.5233932300,24.3531592500],[117.5242265600,24.3531592500],[117.5250598900,24.3531592500],[117.5250598900,24.3539925800],[117.5258932200,24.3539925800],[117.5258932200,24.3548259100],[117.5267265500,24.3548259100],[117.5267265500,24.3556592400],[117.5275598800,24.3556592400],[117.5283932100,24.3556592400],[117.5283932100,24.3548259100],[117.5292265400,24.3548259100],[117.5292265400,24.3539925800],[117.5300598700,24.3539925800],[117.5300598700,24.3531592500],[117.5300598700,24.3523259200],[117.5308932000,24.3523259200],[117.5308932000,24.3514925900],[117.5317265300,24.3514925900],[117.5325598600,24.3514925900],[117.5333931900,24.3514925900],[117.5342265200,24.3514925900],[117.5342265200,24.3523259200],[117.5350598500,24.3523259200],[117.5358931800,24.3523259200],[117.5367265100,24.3523259200],[117.5367265100,24.3531592500],[117.5367265100,24.3539925800],[117.5358931800,24.3539925800],[117.5358931800,24.3548259100],[117.5358931800,24.3556592400],[117.5367265100,24.3556592400],[117.5367265100,24.3564925700],[117.5367265100,24.3573259000],[117.5375598400,24.3573259000],[117.5375598400,24.3581592300],[117.5367265100,24.3581592300],[117.5367265100,24.3589925600],[117.5375598400,24.3589925600],[117.5375598400,24.3598258900],[117.5383931700,24.3598258900],[117.5383931700,24.3606592200],[117.5383931700,24.3614925500],[117.5383931700,24.3623258800],[117.5383931700,24.3631592100],[117.5392265000,24.3631592100],[117.5392265000,24.3639925400],[117.5383931700,24.3639925400],[117.5383931700,24.3648258700],[117.5383931700,24.3656592000],[117.5392265000,24.3656592000],[117.5392265000,24.3664925300],[117.5392265000,24.3673258600],[117.5392265000,24.3681591900],[117.5392265000,24.3689925200],[117.5392265000,24.3698258500],[117.5392265000,24.3706591800],[117.5383931700,24.3706591800],[117.5383931700,24.3714925100],[117.5383931700,24.3723258400],[117.5383931700,24.3731591700],[117.5383931700,24.3739925000],[117.5383931700,24.3748258300],[117.5383931700,24.3756591600],[117.5392265000,24.3756591600],[117.5392265000,24.3764924900],[117.5400598300,24.3764924900],[117.5400598300,24.3773258200],[117.5408931600,24.3773258200],[117.5408931600,24.3781591500],[117.5417264900,24.3781591500],[117.5425598200,24.3781591500],[117.5433931500,24.3781591500],[117.5433931500,24.3773258200],[117.5442264800,24.3773258200],[117.5450598100,24.3773258200],[117.5458931400,24.3773258200],[117.5467264700,24.3773258200],[117.5467264700,24.3764924900],[117.5475598000,24.3764924900],[117.5483931300,24.3764924900],[117.5492264600,24.3764924900],[117.5500597900,24.3764924900],[117.5508931200,24.3764924900],[117.5508931200,24.3756591600],[117.5517264500,24.3756591600],[117.5517264500,24.3748258300],[117.5517264500,24.3739925000],[117.5525597800,24.3739925000],[117.5533931100,24.3739925000],[117.5533931100,24.3731591700],[117.5533931100,24.3723258400],[117.5542264400,24.3723258400],[117.5542264400,24.3714925100],[117.5550597700,24.3714925100],[117.5558931000,24.3714925100],[117.5558931000,24.3706591800],[117.5558931000,24.3698258500],[117.5558931000,24.3689925200],[117.5567264300,24.3689925200],[117.5567264300,24.3681591900],[117.5575597600,24.3681591900],[117.5575597600,24.3673258600],[117.5583930900,24.3673258600],[117.5583930900,24.3681591900],[117.5592264200,24.3681591900],[117.5600597500,24.3681591900],[117.5600597500,24.3689925200],[117.5608930800,24.3689925200],[117.5617264100,24.3689925200],[117.5625597400,24.3689925200],[117.5625597400,24.3681591900],[117.5633930700,24.3681591900],[117.5633930700,24.3673258600],[117.5642264000,24.3673258600],[117.5642264000,24.3681591900],[117.5650597300,24.3681591900],[117.5658930600,24.3681591900],[117.5667263900,24.3681591900],[117.5675597200,24.3681591900],[117.5683930500,24.3681591900],[117.5692263800,24.3681591900],[117.5700597100,24.3681591900],[117.5708930400,24.3681591900],[117.5708930400,24.3673258600],[117.5717263700,24.3673258600],[117.5717263700,24.3681591900],[117.5725597000,24.3681591900],[117.5733930300,24.3681591900],[117.5733930300,24.3689925200],[117.5742263600,24.3689925200],[117.5742263600,24.3681591900],[117.5750596900,24.3681591900],[117.5758930200,24.3681591900],[117.5758930200,24.3673258600],[117.5758930200,24.3664925300],[117.5767263500,24.3664925300],[117.5767263500,24.3656592000],[117.5775596800,24.3656592000],[117.5783930100,24.3656592000],[117.5783930100,24.3664925300],[117.5792263400,24.3664925300],[117.5800596700,24.3664925300],[117.5808930000,24.3664925300],[117.5808930000,24.3673258600],[117.5817263300,24.3673258600],[117.5817263300,24.3681591900],[117.5825596600,24.3681591900],[117.5825596600,24.3689925200],[117.5833929900,24.3689925200],[117.5842263200,24.3689925200],[117.5842263200,24.3698258500],[117.5850596500,24.3698258500],[117.5850596500,24.3706591800],[117.5858929800,24.3706591800],[117.5858929800,24.3698258500],[117.5867263100,24.3698258500],[117.5875596400,24.3698258500],[117.5875596400,24.3689925200],[117.5883929700,24.3689925200],[117.5892263000,24.3689925200],[117.5900596300,24.3689925200],[117.5900596300,24.3698258500],[117.5908929600,24.3698258500],[117.5917262900,24.3698258500],[117.5917262900,24.3706591800],[117.5925596200,24.3706591800],[117.5933929500,24.3706591800],[117.5933929500,24.3698258500],[117.5942262800,24.3698258500],[117.5950596100,24.3698258500],[117.5958929400,24.3698258500],[117.5958929400,24.3689925200],[117.5967262700,24.3689925200],[117.5967262700,24.3698258500],[117.5975596000,24.3698258500],[117.5975596000,24.3706591800],[117.5983929300,24.3706591800],[117.5983929300,24.3698258500],[117.5992262600,24.3698258500],[117.5992262600,24.3689925200],[117.6000595900,24.3689925200],[117.6008929200,24.3689925200],[117.6017262500,24.3689925200],[117.6017262500,24.3698258500],[117.6017262500,24.3706591800],[117.6017262500,24.3714925100],[117.6025595800,24.3714925100],[117.6033929100,24.3714925100],[117.6033929100,24.3706591800],[117.6042262400,24.3706591800],[117.6042262400,24.3698258500],[117.6050595700,24.3698258500],[117.6058929000,24.3698258500],[117.6067262300,24.3698258500],[117.6075595600,24.3698258500],[117.6083928900,24.3698258500],[117.6083928900,24.3706591800],[117.6092262200,24.3706591800],[117.6092262200,24.3714925100],[117.6092262200,24.3723258400],[117.6100595500,24.3723258400],[117.6108928800,24.3723258400],[117.6117262100,24.3723258400],[117.6117262100,24.3731591700],[117.6125595400,24.3731591700],[117.6133928700,24.3731591700],[117.6142262000,24.3731591700],[117.6150595300,24.3731591700],[117.6150595300,24.3723258400],[117.6158928600,24.3723258400],[117.6158928600,24.3714925100],[117.6167261900,24.3714925100],[117.6175595200,24.3714925100],[117.6175595200,24.3706591800],[117.6183928500,24.3706591800],[117.6183928500,24.3714925100],[117.6183928500,24.3723258400],[117.6192261800,24.3723258400],[117.6192261800,24.3731591700],[117.6192261800,24.3739925000],[117.6192261800,24.3748258300],[117.6192261800,24.3756591600],[117.6183928500,24.3756591600],[117.6183928500,24.3764924900],[117.6175595200,24.3764924900],[117.6175595200,24.3773258200],[117.6175595200,24.3781591500],[117.6175595200,24.3789924800],[117.6175595200,24.3798258100],[117.6183928500,24.3798258100],[117.6183928500,24.3806591400],[117.6183928500,24.3814924700],[117.6192261800,24.3814924700],[117.6192261800,24.3823258000],[117.6200595100,24.3823258000],[117.6208928400,24.3823258000],[117.6208928400,24.3814924700],[117.6217261700,24.3814924700],[117.6217261700,24.3806591400],[117.6225595000,24.3806591400],[117.6233928300,24.3806591400],[117.6233928300,24.3798258100],[117.6242261600,24.3798258100],[117.6250594900,24.3798258100],[117.6258928200,24.3798258100],[117.6258928200,24.3806591400],[117.6267261500,24.3806591400],[117.6267261500,24.3814924700],[117.6275594800,24.3814924700],[117.6283928100,24.3814924700],[117.6283928100,24.3806591400],[117.6292261400,24.3806591400],[117.6300594700,24.3806591400],[117.6308928000,24.3806591400],[117.6308928000,24.3798258100],[117.6317261300,24.3798258100],[117.6317261300,24.3806591400],[117.6325594600,24.3806591400],[117.6325594600,24.3798258100],[117.6333927900,24.3798258100],[117.6342261200,24.3798258100],[117.6350594500,24.3798258100],[117.6358927800,24.3798258100],[117.6358927800,24.3789924800],[117.6367261100,24.3789924800],[117.6375594400,24.3789924800],[117.6375594400,24.3781591500],[117.6383927700,24.3781591500],[117.6392261000,24.3781591500],[117.6400594300,24.3781591500],[117.6408927600,24.3781591500],[117.6417260900,24.3781591500],[117.6417260900,24.3789924800],[117.6425594200,24.3789924800],[117.6425594200,24.3798258100],[117.6433927500,24.3798258100],[117.6442260800,24.3798258100],[117.6450594100,24.3798258100],[117.6450594100,24.3806591400],[117.6458927400,24.3806591400],[117.6458927400,24.3798258100],[117.6467260700,24.3798258100],[117.6467260700,24.3789924800],[117.6475594000,24.3789924800],[117.6483927300,24.3789924800],[117.6483927300,24.3781591500],[117.6492260600,24.3781591500],[117.6500593900,24.3781591500],[117.6508927200,24.3781591500],[117.6517260500,24.3781591500],[117.6525593800,24.3781591500],[117.6525593800,24.3789924800],[117.6525593800,24.3798258100],[117.6533927100,24.3798258100],[117.6542260400,24.3798258100],[117.6550593700,24.3798258100],[117.6550593700,24.3806591400],[117.6550593700,24.3814924700],[117.6550593700,24.3823258000],[117.6542260400,24.3823258000],[117.6542260400,24.3831591300],[117.6542260400,24.3839924600],[117.6542260400,24.3848257900],[117.6550593700,24.3848257900],[117.6550593700,24.3856591200],[117.6558927000,24.3856591200],[117.6558927000,24.3864924500],[117.6567260300,24.3864924500],[117.6575593600,24.3864924500],[117.6583926900,24.3864924500],[117.6583926900,24.3873257800],[117.6583926900,24.3881591100],[117.6592260200,24.3881591100],[117.6592260200,24.3889924400],[117.6600593500,24.3889924400],[117.6608926800,24.3889924400],[117.6608926800,24.3898257700],[117.6617260100,24.3898257700],[117.6617260100,24.3906591000],[117.6625593400,24.3906591000],[117.6625593400,24.3914924300],[117.6625593400,24.3923257600],[117.6625593400,24.3931590900],[117.6625593400,24.3939924200],[117.6617260100,24.3939924200],[117.6617260100,24.3948257500],[117.6617260100,24.3956590800],[117.6608926800,24.3956590800],[117.6608926800,24.3964924100],[117.6608926800,24.3973257400],[117.6608926800,24.3981590700],[117.6608926800,24.3989924000],[117.6608926800,24.3998257300],[117.6608926800,24.4006590600],[117.6617260100,24.4006590600],[117.6617260100,24.4014923900],[117.6617260100,24.4023257200],[117.6625593400,24.4023257200],[117.6625593400,24.4031590500],[117.6633926700,24.4031590500],[117.6642260000,24.4031590500],[117.6642260000,24.4039923800],[117.6642260000,24.4048257100],[117.6650593300,24.4048257100],[117.6650593300,24.4056590400],[117.6658926600,24.4056590400],[117.6658926600,24.4064923700],[117.6667259900,24.4064923700],[117.6675593200,24.4064923700],[117.6683926500,24.4064923700],[117.6683926500,24.4056590400],[117.6692259800,24.4056590400],[117.6692259800,24.4048257100],[117.6700593100,24.4048257100],[117.6708926400,24.4048257100],[117.6708926400,24.4056590400],[117.6717259700,24.4056590400],[117.6717259700,24.4064923700],[117.6725593000,24.4064923700],[117.6725593000,24.4073257000],[117.6733926300,24.4073257000],[117.6742259600,24.4073257000],[117.6742259600,24.4081590300],[117.6750592900,24.4081590300],[117.6750592900,24.4089923600],[117.6758926200,24.4089923600],[117.6767259500,24.4089923600],[117.6767259500,24.4098256900],[117.6775592800,24.4098256900],[117.6783926100,24.4098256900],[117.6792259400,24.4098256900],[117.6800592700,24.4098256900],[117.6808926000,24.4098256900],[117.6817259300,24.4098256900],[117.6817259300,24.4106590200],[117.6817259300,24.4114923500],[117.6817259300,24.4123256800],[117.6817259300,24.4131590100],[117.6817259300,24.4139923400],[117.6817259300,24.4148256700],[117.6825592600,24.4148256700],[117.6833925900,24.4148256700],[117.6842259200,24.4148256700],[117.6842259200,24.4156590000],[117.6850592500,24.4156590000],[117.6858925800,24.4156590000],[117.6858925800,24.4164923300],[117.6858925800,24.4173256600],[117.6867259100,24.4173256600],[117.6875592400,24.4173256600],[117.6875592400,24.4181589900],[117.6883925700,24.4181589900],[117.6883925700,24.4189923200],[117.6892259000,24.4189923200],[117.6892259000,24.4198256500],[117.6900592300,24.4198256500],[117.6900592300,24.4206589800],[117.6908925600,24.4206589800],[117.6908925600,24.4214923100],[117.6917258900,24.4214923100],[117.6925592200,24.4214923100],[117.6925592200,24.4223256400],[117.6933925500,24.4223256400],[117.6942258800,24.4223256400],[117.6950592100,24.4223256400],[117.6950592100,24.4231589700],[117.6958925400,24.4231589700],[117.6958925400,24.4239923000],[117.6967258700,24.4239923000],[117.6975592000,24.4239923000],[117.6975592000,24.4248256300],[117.6983925300,24.4248256300],[117.6983925300,24.4256589600],[117.6992258600,24.4256589600],[117.7000591900,24.4256589600],[117.7000591900,24.4264922900],[117.7008925200,24.4264922900],[117.7008925200,24.4273256200],[117.7017258500,24.4273256200],[117.7017258500,24.4281589500],[117.7025591800,24.4281589500],[117.7025591800,24.4289922800],[117.7033925100,24.4289922800],[117.7033925100,24.4298256100],[117.7042258400,24.4298256100],[117.7042258400,24.4306589400],[117.7050591700,24.4306589400],[117.7058925000,24.4306589400],[117.7058925000,24.4314922700],[117.7067258300,24.4314922700],[117.7075591600,24.4314922700],[117.7075591600,24.4323256000],[117.7083924900,24.4323256000],[117.7092258200,24.4323256000],[117.7092258200,24.4331589300],[117.7100591500,24.4331589300],[117.7100591500,24.4339922600],[117.7108924800,24.4339922600],[117.7117258100,24.4339922600],[117.7125591400,24.4339922600],[117.7125591400,24.4331589300],[117.7133924700,24.4331589300],[117.7142258000,24.4331589300],[117.7150591300,24.4331589300],[117.7158924600,24.4331589300],[117.7158924600,24.4339922600],[117.7167257900,24.4339922600],[117.7167257900,24.4331589300],[117.7175591200,24.4331589300],[117.7183924500,24.4331589300],[117.7192257800,24.4331589300],[117.7192257800,24.4323256000],[117.7200591100,24.4323256000],[117.7200591100,24.4314922700],[117.7208924400,24.4314922700],[117.7208924400,24.4323256000],[117.7208924400,24.4331589300],[117.7217257700,24.4331589300],[117.7217257700,24.4339922600],[117.7217257700,24.4348255900],[117.7217257700,24.4356589200],[117.7217257700,24.4364922500],[117.7217257700,24.4373255800],[117.7217257700,24.4381589100],[117.7225591000,24.4381589100],[117.7225591000,24.4389922400],[117.7233924300,24.4389922400],[117.7233924300,24.4398255700],[117.7233924300,24.4406589000],[117.7242257600,24.4406589000],[117.7242257600,24.4414922300],[117.7250590900,24.4414922300],[117.7250590900,24.4423255600],[117.7258924200,24.4423255600],[117.7267257500,24.4423255600],[117.7275590800,24.4423255600],[117.7283924100,24.4423255600],[117.7292257400,24.4423255600],[117.7292257400,24.4431588900],[117.7300590700,24.4431588900],[117.7308924000,24.4431588900],[117.7317257300,24.4431588900],[117.7325590600,24.4431588900],[117.7333923900,24.4431588900],[117.7342257200,24.4431588900],[117.7342257200,24.4423255600],[117.7350590500,24.4423255600],[117.7350590500,24.4431588900],[117.7350590500,24.4439922200],[117.7358923800,24.4439922200],[117.7367257100,24.4439922200],[117.7367257100,24.4448255500],[117.7375590400,24.4448255500],[117.7383923700,24.4448255500],[117.7392257000,24.4448255500],[117.7400590300,24.4448255500],[117.7408923600,24.4448255500],[117.7408923600,24.4456588800]]]},"properties":{"basin_pixels":93432}}
]}
